*******************************************************************************
 Revised: Sep 28, 2012             Phobos / (Mars)                          401

 SATELLITE PHYSICAL PROPERTIES:
  Radius (km)             = 13.1 x11.1 x9.3 Density (g cm^-3)   =  1.90 +- 0.08
  Mass (10^20 kg )        =  1.08 (10^-4)   Geometric Albedo    =  0.06 
                                 (+- 0.1)   V(1,0)              = +11.8

 SATELLITE ORBITAL DATA:
  Semi-major axis, a (km) = 9.3772(10^3)    Orbital period      = 0.319 d
  Eccentricity, e         = 0.0151          Rotational period   = Synchronous
  Inclination, i  (deg)   = 1.082
*******************************************************************************
 
 
*******************************************************************************
Ephemeris / WWW_USER Tue Mar 17 05:07:45 2020 Pasadena, USA      / Horizons    
*******************************************************************************
Target body name: Phobos (401)                    {source: mar097}
Center body name: Phobos (401)                    {source: mar097}
Center-site name: (user defined site below)
*******************************************************************************
Start time      : A.D. 2019-Sep-24 12:00:00.0000 TDB
Stop  time      : A.D. 2019-Sep-24 12:00:10.0000 TDB
Step-size       : 20 steps
*******************************************************************************
Center geodetic : 360.000000,90.0000000,-1.52E-15 {W-lon(deg),Lat(deg),Alt(km)}
Center cylindric: 360.000000,1.1372E-15,9.1000000 {W-lon(deg),Dxy(km),Dz(km)}
Center pole/equ : IAU_PHOBOS                      {West-longitude positive}
Center radii    : 13.0 x 11.4 x 9.1 km            {Equator, meridian, pole}    
Output units    : KM-S                                                         
Output type     : GEOMETRIC cartesian states
Output format   : 3 (position, velocity, LT, range, range-rate)
Reference frame : ICRF/J2000.0                                                 
Coordinate systm: Ecliptic and Mean Equinox of Reference Epoch                 
*******************************************************************************
            JDTDB,            Calendar Date (TDB),                      X,                      Y,                      Z,                     VX,                     VY,                     VZ,                     LT,                     RG,                     RR,
**************************************************************************************************************************************************************************************************************************************************************************
$$SOE
2458751.000000000, A.D. 2019-Sep-24 12:00:00.0000, -3.939909098660684E+00,  6.197524938700716E-01, -8.179426822255490E+00,  8.532724464015350E-09, -1.141650973774513E-08, -4.975112562004298E-09,  3.035433266303182E-05,  9.099999999999998E+00,  0.000000000000000E+00,
2458751.000005787, A.D. 2019-Sep-24 12:00:00.5000, -3.939909094394324E+00,  6.197524881618111E-01, -8.179426824743047E+00,  8.532724003041598E-09, -1.141651017062314E-08, -4.975112358828029E-09,  3.035433266303183E-05,  9.099999999999998E+00, -1.454383494598730E-24,
2458751.000011574, A.D. 2019-Sep-24 12:00:01.0000, -3.939909090127959E+00,  6.197524824535567E-01, -8.179426827230603E+00,  8.532723542068049E-09, -1.141651060350091E-08, -4.975112155651847E-09,  3.035433266303183E-05,  9.099999999999998E+00,  7.271917472993652E-25,
2458751.000017361, A.D. 2019-Sep-24 12:00:01.5000, -3.939909085861597E+00,  6.197524767453033E-01, -8.179426829718158E+00,  8.532723081094481E-09, -1.141651103637866E-08, -4.975111952475654E-09,  3.035433266303182E-05,  9.099999999999998E+00, -7.271917472993652E-25,
2458751.000023148, A.D. 2019-Sep-24 12:00:02.0000, -3.939909081595238E+00,  6.197524710370463E-01, -8.179426832205714E+00,  8.532722620120904E-09, -1.141651146925638E-08, -4.975111749299457E-09,  3.035433266303183E-05,  9.099999999999998E+00, -7.271917472993652E-25,
2458751.000028935, A.D. 2019-Sep-24 12:00:02.5000, -3.939909077328876E+00,  6.197524653287929E-01, -8.179426834693270E+00,  8.532722159147313E-09, -1.141651190213409E-08, -4.975111546123248E-09,  3.035433266303184E-05,  9.100000000000000E+00, -3.635958736496825E-24,
2458751.000034722, A.D. 2019-Sep-24 12:00:03.0000, -3.939909073062516E+00,  6.197524596205346E-01, -8.179426837180825E+00,  8.532721698173704E-09, -1.141651233501176E-08, -4.975111342947034E-09,  3.035433266303183E-05,  9.099999999999996E+00,  1.454383494598731E-24,
2458751.000040509, A.D. 2019-Sep-24 12:00:03.5000, -3.939909068796156E+00,  6.197524539122767E-01, -8.179426839668380E+00,  8.532721237200084E-09, -1.141651276788941E-08, -4.975111139770806E-09,  3.035433266303183E-05,  9.099999999999998E+00,  7.271917472993652E-25,
2458751.000046297, A.D. 2019-Sep-24 12:00:04.0000, -3.939909064529793E+00,  6.197524482040233E-01, -8.179426842155939E+00,  8.532720776226438E-09, -1.141651320076705E-08, -4.975110936594567E-09,  3.035433266303184E-05,  9.100000000000000E+00,  1.454383494598730E-24,
2458751.000052083, A.D. 2019-Sep-24 12:00:04.5000, -3.939909060263435E+00,  6.197524424957668E-01, -8.179426844643492E+00,  8.532720315252788E-09, -1.141651363364465E-08, -4.975110733418325E-09,  3.035433266303183E-05,  9.099999999999998E+00, -7.271917472993652E-25,
2458751.000057871, A.D. 2019-Sep-24 12:00:05.0000, -3.939909055997072E+00,  6.197524367875116E-01, -8.179426847131047E+00,  8.532719854278964E-09, -1.141651406652238E-08, -4.975110530242004E-09,  3.035433266303183E-05,  9.099999999999996E+00, -2.908766989197461E-24,
2458751.000063657, A.D. 2019-Sep-24 12:00:05.5000, -3.939909051730716E+00,  6.197524310792519E-01, -8.179426849618602E+00,  8.532719393305436E-09, -1.141651449939979E-08, -4.975110327065807E-09,  3.035433266303183E-05,  9.099999999999998E+00, -7.271917472993652E-25,
2458751.000069445, A.D. 2019-Sep-24 12:00:06.0000, -3.939909047464356E+00,  6.197524253709941E-01, -8.179426852106157E+00,  8.532718932331738E-09, -1.141651493227733E-08, -4.975110123889536E-09,  3.035433266303183E-05,  9.100000000000000E+00,  0.000000000000000E+00,
2458751.000075231, A.D. 2019-Sep-24 12:00:06.5000, -3.939909043197996E+00,  6.197524196627349E-01, -8.179426854593714E+00,  8.532718471357876E-09, -1.141651536515498E-08, -4.975109920713187E-09,  3.035433266303184E-05,  9.099999999999998E+00, -2.181575241898095E-24,
2458751.000081019, A.D. 2019-Sep-24 12:00:07.0000, -3.939909038931636E+00,  6.197524139544774E-01, -8.179426857081268E+00,  8.532718010384069E-09, -1.141651579803254E-08, -4.975109717536869E-09,  3.035433266303184E-05,  9.099999999999998E+00,  1.454383494598730E-24,
2458751.000086806, A.D. 2019-Sep-24 12:00:07.5000, -3.939909034665277E+00,  6.197524082462200E-01, -8.179426859568823E+00,  8.532717549410326E-09, -1.141651623091001E-08, -4.975109514360569E-09,  3.035433266303184E-05,  9.099999999999996E+00, -7.271917472993653E-25,
2458751.000092593, A.D. 2019-Sep-24 12:00:08.0000, -3.939909030398917E+00,  6.197524025379622E-01, -8.179426862056378E+00,  8.532717088436566E-09, -1.141651666378745E-08, -4.975109311184258E-09,  3.035433266303183E-05,  9.099999999999998E+00, -1.454383494598730E-24,
2458751.000098380, A.D. 2019-Sep-24 12:00:08.5000, -3.939909026132557E+00,  6.197523968297052E-01, -8.179426864543933E+00,  8.532716627462790E-09, -1.141651709666487E-08, -4.975109108007939E-09,  3.035433266303183E-05,  9.099999999999998E+00, -2.908766989197461E-24,
2458751.000104167, A.D. 2019-Sep-24 12:00:09.0000, -3.939909021866199E+00,  6.197523911214482E-01, -8.179426867031488E+00,  8.532716166488999E-09, -1.141651752954227E-08, -4.975108904831616E-09,  3.035433266303183E-05,  9.099999999999998E+00, -1.454383494598730E-24,
2458751.000109954, A.D. 2019-Sep-24 12:00:09.5000, -3.939909017599843E+00,  6.197523854131881E-01, -8.179426869519041E+00,  8.532715705515198E-09, -1.141651796241963E-08, -4.975108701655281E-09,  3.035433266303183E-05,  9.099999999999996E+00, -1.454383494598731E-24,
2458751.000115741, A.D. 2019-Sep-24 12:00:10.0000, -3.939909013333483E+00,  6.197523797049298E-01, -8.179426872006596E+00,  8.532715244541376E-09, -1.141651839529698E-08, -4.975108498478935E-09,  3.035433266303183E-05,  9.099999999999998E+00, -7.271917472993652E-25,
$$EOE
**************************************************************************************************************************************************************************************************************************************************************************
Coordinate system description:

  Ecliptic and Mean Equinox of Reference Epoch

    Reference epoch: J2000.0
    XY-plane: plane of the Earth's orbit at the reference epoch
              Note: obliquity of 84381.448 arcseconds wrt ICRF equator (IAU76)
    X-axis  : out along ascending node of instantaneous plane of the Earth's
              orbit and the Earth's mean equator at the reference epoch
    Z-axis  : perpendicular to the xy-plane in the directional (+ or -) sense
              of Earth's north pole at the reference epoch.

  Symbol meaning:

    JDTDB    Julian Day Number, Barycentric Dynamical Time
      X      X-component of position vector (km)                               
      Y      Y-component of position vector (km)                               
      Z      Z-component of position vector (km)                               
      VX     X-component of velocity vector (km/sec)                           
      VY     Y-component of velocity vector (km/sec)                           
      VZ     Z-component of velocity vector (km/sec)                           
      LT     One-way down-leg Newtonian light-time (sec)                       
      RG     Range; distance from coordinate center (km)                       
      RR     Range-rate; radial velocity wrt coord. center (km/sec)            

Geometric states/elements have no aberrations applied.

 Computations by ...
     Solar System Dynamics Group, Horizons On-Line Ephemeris System
     4800 Oak Grove Drive, Jet Propulsion Laboratory
     Pasadena, CA  91109   USA
     Information: http://ssd.jpl.nasa.gov/
     Connect    : telnet://ssd.jpl.nasa.gov:6775  (via browser)
                  http://ssd.jpl.nasa.gov/?horizons
                  telnet ssd.jpl.nasa.gov 6775    (via command-line)
     Author     : Jon.D.Giorgini@jpl.nasa.gov
*******************************************************************************

!$$SOF
COMMAND = '401'
CENTER =  'coord@401'
COORD_TYPE = 'GEODETIC'
SITE_COORD = '0,90,0'
MAKE_EPHEM = 'YES'
TABLE_TYPE = 'VECTORS'
START_TIME = '2019-09-24 12:00:00.0'
STOP_TIME = '2019-09-24 12:00:10.0'
STEP_SIZE = '20'
OUT_UNITS =  'KM-S'
VECT_TABLE =  '3'
REF_PLANE =  'ECLIPTIC'
REF_SYSTEM =  'J2000'
VECT_CORR =  'NONE'
VEC_LABELS =  'NO'
CSV_FORMAT =  'YES'
OBJ_DATA =  'YES'
